{
  "version": 0.6,
  "generator": "Overpass API 0.7.62.8 e802775f",
  "osm3s": {
    "timestamp_osm_base": "2025-08-17T21:43:00Z",
    "timestamp_areas_base": "2025-08-17T15:16:14Z",
    "copyright": "The data included in this document is from www.openstreetmap.org. The data is made available under ODbL."
  },
  "elements": [

{
  "type": "node",
  "id": 1361746641,
  "lat": 30.5742658,
  "lon": -85.1278831,
  "tags": {
    "amenity": "marketplace"
  }
},
{
  "type": "node",
  "id": 1454839975,
  "lat": 25.6829881,
  "lon": -80.3134484,
  "tags": {
    "addr:city": "Miami",
    "addr:postcode": "33156",
    "addr:state": "FL",
    "addr:street": "South Dixie Highway",
    "amenity": "marketplace",
    "name": "Gator Plaza"
  }
},
{
  "type": "node",
  "id": 1549866134,
  "lat": 25.8006545,
  "lon": -80.1892240,
  "tags": {
    "amenity": "marketplace",
    "name": "Loft Sofa - Modern Furniture Store"
  }
},
{
  "type": "node",
  "id": 1615944972,
  "lat": 27.4605883,
  "lon": -82.5701248,
  "tags": {
    "amenity": "marketplace"
  }
},
{
  "type": "node",
  "id": 1924784930,
  "lat": 29.4905916,
  "lon": -82.8644475,
  "tags": {
    "addr:city": "Chiefland",
    "addr:full": "316 NW 11th Ave",
    "addr:housenumber": "316",
    "addr:postcode": "32626",
    "addr:state": "FL",
    "addr:street": "Northwest 11th Avenue",
    "amenity": "marketplace",
    "name": "Chiefland Farmers Flea Market",
    "phone": "+1-352-493-2022"
  }
},
{
  "type": "node",
  "id": 1933971744,
  "lat": 29.6206550,
  "lon": -82.6571372,
  "tags": {
    "addr:city": "Newberry",
    "addr:housenumber": "8029",
    "addr:postcode": "32669",
    "addr:state": "FL",
    "addr:street": "SE 90th Ave",
    "amenity": "marketplace",
    "name": "Weeks Flea Market",
    "note": "street number extrapolated because county has not assigned an actual number for this POI, due to historical reasons",
    "second_hand": "only"
  }
},
{
  "type": "node",
  "id": 1947088079,
  "lat": 30.3232018,
  "lon": -81.4007593,
  "tags": {
    "addr:city": "Neptune Beach",
    "addr:housenumber": "500",
    "addr:postcode": "32266",
    "addr:street": "Atlantic Boulevard",
    "amenity": "marketplace",
    "note": "Out of Business, Empty"
  }
},
{
  "type": "node",
  "id": 2273259029,
  "lat": 25.7737416,
  "lon": -80.1407679,
  "tags": {
    "amenity": "marketplace",
    "name": "5 Diamond Delicacies"
  }
},
{
  "type": "node",
  "id": 2290635632,
  "lat": 27.5376793,
  "lon": -81.4487845,
  "tags": {
    "amenity": "marketplace",
    "name": "McCraken Farms"
  }
},
{
  "type": "node",
  "id": 2389087357,
  "lat": 26.1368697,
  "lon": -80.1921279,
  "tags": {
    "amenity": "marketplace",
    "name": "Swap Shop Florida"
  }
},
{
  "type": "node",
  "id": 2614718300,
  "lat": 26.9635546,
  "lon": -82.0753302,
  "tags": {
    "amenity": "marketplace",
    "designation": "BOATS FOR SALE,PARTS,SERVICE,STORAGE",
    "name": "THE BOAT HOUSE",
    "source": "ADDRESS"
  }
},
{
  "type": "node",
  "id": 3233769733,
  "lat": 25.8366339,
  "lon": -80.1840315,
  "tags": {
    "amenity": "marketplace",
    "name": "Upper East Side Farmers Market",
    "opening_hours": "Sa 09:00-14:00"
  }
},
{
  "type": "node",
  "id": 3367320325,
  "lat": 25.7022465,
  "lon": -80.3483154,
  "tags": {
    "amenity": "marketplace",
    "name": "PK Oriental Mart"
  }
},
{
  "type": "node",
  "id": 3664821988,
  "lat": 29.4767492,
  "lon": -82.8590779,
  "tags": {
    "amenity": "marketplace",
    "description": "fresh produce farmers market, 2 times per month in season",
    "opening_hours": "closed;Sep-Jun Sa[2,4] 08:00-13:00"
  }
},
{
  "type": "node",
  "id": 3669389543,
  "lat": 30.3162294,
  "lon": -81.6750606,
  "tags": {
    "amenity": "marketplace",
    "name": "Riverside Arts Market",
    "opening_hours": "Sa 10:00-15:00"
  }
},
{
  "type": "node",
  "id": 4186596371,
  "lat": 28.0163421,
  "lon": -82.1228003,
  "tags": {
    "amenity": "marketplace",
    "name": "The corner Store"
  }
},
{
  "type": "node",
  "id": 4237990573,
  "lat": 30.2826109,
  "lon": -82.9497972,
  "tags": {
    "amenity": "marketplace",
    "description": "Auctions Friday night starting @ 7pm",
    "name": "Live Oak Flea Market",
    "opening_hours": "Fr-Su 08:00-17:00"
  }
},
{
  "type": "node",
  "id": 4608877545,
  "lat": 28.2379370,
  "lon": -81.2109926,
  "tags": {
    "amenity": "marketplace",
    "name": "Farm Market",
    "opening_hours": "Sa 10:00-13:00",
    "operator": "Osceola County Grown",
    "organic": "yes",
    "website": "http://www.osceolacountygrown.com/",
    "wheelchair": "yes"
  }
},
{
  "type": "node",
  "id": 4852402689,
  "lat": 28.3684426,
  "lon": -81.5468528,
  "tags": {
    "amenity": "marketplace",
    "cuisine": "german",
    "delivery": "no",
    "description": "This Outdoor Kitchen is open annually for the Epcot International Flower and Garden Festival.",
    "drive_through": "no",
    "name": "Bauernmarkt: Farmer's Market",
    "opening_hours": "Mar 01-May 29 unknown",
    "outdoor_seating": "yes",
    "takeaway": "only"
  }
},
{
  "type": "node",
  "id": 5066242136,
  "lat": 28.1151529,
  "lon": -80.7079349,
  "tags": {
    "addr:city": "Melbourne",
    "addr:housenumber": "4835",
    "addr:postcode": "32934",
    "addr:state": "FL",
    "addr:street": "West Eau Gallie Road",
    "amenity": "marketplace",
    "name": "Renninger's Flea Market"
  }
},
{
  "type": "node",
  "id": 5416754908,
  "lat": 24.6683454,
  "lon": -81.3589807,
  "tags": {
    "addr:street": "30250 Overseas Hwy, Big Pine Key, FL 33043, USA",
    "amenity": "marketplace",
    "name": "Big Pine Flea Market",
    "opening_hours": "Sa, Su 08:00-14:00",
    "website": "https://www.bigpinefleamarket.com"
  }
},
{
  "type": "node",
  "id": 5788289985,
  "lat": 30.7590490,
  "lon": -86.5695962,
  "tags": {
    "addr:city": "Crestview",
    "addr:housenumber": "148",
    "addr:state": "FL",
    "addr:street": "Woodruff Avenue East",
    "addr:unit": "A",
    "amenity": "marketplace",
    "name": "Asian Market"
  }
},
{
  "type": "node",
  "id": 6019671530,
  "lat": 25.8650703,
  "lon": -80.1933412,
  "tags": {
    "addr:city": "Miami Shores",
    "addr:housenumber": "9727",
    "addr:postcode": "33138",
    "addr:state": "FL",
    "addr:street": "Northeast 2nd Avenue",
    "amenity": "marketplace",
    "name": "Mima Market"
  }
},
{
  "type": "node",
  "id": 6342353386,
  "lat": 28.3187143,
  "lon": -81.5407514,
  "tags": {
    "addr:city": "Celebration",
    "addr:postcode": "34747",
    "addr:state": "FL",
    "addr:street": "Market Street",
    "amenity": "marketplace",
    "name": "Celebration Farmers Market",
    "opening_hours": "Su 09:00-14:00",
    "website": "https://www.celebrationfarmersmarket.com/"
  }
},
{
  "type": "node",
  "id": 6530476861,
  "lat": 27.6494553,
  "lon": -80.3557959,
  "tags": {
    "amenity": "marketplace",
    "name": "Farmers Market Oceanside",
    "opening_hours": "Sa 08:00-12:00",
    "operator": "Oceanside Business Association"
  }
},
{
  "type": "node",
  "id": 6712640521,
  "lat": 27.7713149,
  "lon": -82.6505292,
  "tags": {
    "addr:city": "Saint Petersburg",
    "addr:housenumber": "1113",
    "addr:postcode": "33705",
    "addr:state": "FL",
    "addr:street": "Central Avenue",
    "amenity": "marketplace",
    "building": "yes",
    "name": "Baum Ave market",
    "opening_hours": "Mo-Su 09:00-20:00",
    "website": "https://baumavemarket.com/"
  }
},
{
  "type": "node",
  "id": 7490456369,
  "lat": 30.3142918,
  "lon": -81.7646551,
  "tags": {
    "addr:city": "Jacksonville",
    "addr:housenumber": "7059",
    "addr:postcode": "32205",
    "addr:state": "FL",
    "addr:street": "Ramona Boulevard",
    "amenity": "marketplace",
    "name": "Ramona Flea Market",
    "opening_hours:covid19": "off",
    "operator": "RMFM RE LLC",
    "website": "https://www.ramonaflea.com/"
  }
},
{
  "type": "node",
  "id": 7838457936,
  "lat": 30.3062368,
  "lon": -81.7019171,
  "tags": {
    "addr:city": "Jacksonville",
    "addr:housenumber": "1272",
    "addr:postcode": "32205",
    "addr:state": "FL",
    "addr:street": "South McDuff Avenue",
    "amenity": "marketplace",
    "name": "Front Porch Pickings",
    "website": "http://www.frontporchpickings.com/"
  }
},
{
  "type": "node",
  "id": 8007791766,
  "lat": 29.6614456,
  "lon": -82.3279935,
  "tags": {
    "addr:city": "Gainesville",
    "addr:housenumber": "1001",
    "addr:postcode": "32601",
    "addr:state": "FL",
    "addr:street": "Northwest 4th Street",
    "amenity": "marketplace",
    "name": "Grove Street Farmers Market",
    "opening_hours": "Mo 16:00-19:00",
    "website": "https://www.grovestreetfarmersmarket.com/"
  }
},
{
  "type": "node",
  "id": 8007791767,
  "lat": 29.6460704,
  "lon": -82.3243336,
  "tags": {
    "addr:city": "Gainesville",
    "addr:housenumber": "619",
    "addr:postcode": "32601",
    "addr:state": "FL",
    "addr:street": "South Main Street",
    "amenity": "marketplace",
    "name": "GNV Market",
    "opening_hours": "Th 16:00-19:00"
  }
},
{
  "type": "node",
  "id": 8579395984,
  "lat": 26.4801543,
  "lon": -82.1804418,
  "tags": {
    "amenity": "marketplace"
  }
},
{
  "type": "node",
  "id": 8608676631,
  "lat": 28.3635560,
  "lon": -82.6288699,
  "tags": {
    "amenity": "marketplace",
    "name": "Bob's Blueberry Farm"
  }
},
{
  "type": "node",
  "id": 8641430915,
  "lat": 28.8770415,
  "lon": -80.8523160,
  "tags": {
    "addr:city": "Oak Hill",
    "addr:housenumber": "341",
    "addr:postcode": "32759",
    "addr:street": "North US Highway 1",
    "amenity": "marketplace",
    "name": "Oak Hill Flea Market"
  }
},
{
  "type": "node",
  "id": 8641482766,
  "lat": 29.0266583,
  "lon": -80.9232966,
  "tags": {
    "addr:city": "New Smyrna Beach",
    "addr:housenumber": "210",
    "addr:postcode": "32168",
    "addr:street": "Sams Avenue",
    "amenity": "marketplace",
    "name": "New Smyrna Beach Farmers' Market"
  }
},
{
  "type": "node",
  "id": 8920065571,
  "lat": 28.8115327,
  "lon": -81.2670001,
  "tags": {
    "addr:city": "Sanford",
    "addr:housenumber": "230",
    "addr:postcode": "32771",
    "addr:state": "FL",
    "addr:street": "East 1st Street",
    "amenity": "marketplace",
    "contact:facebook": "https://www.facebook.com/Sanfordmarketplace/",
    "name": "The Sanford Marketplace at Magnolia",
    "opening_hours": "Sa 09:00-13:00",
    "phone": "+1 407-565-2215"
  }
},
{
  "type": "node",
  "id": 9402957954,
  "lat": 27.7697675,
  "lon": -82.6333932,
  "tags": {
    "amenity": "marketplace",
    "description": "Market for produce, hot food, and some art. usually open October to May on Saturdays",
    "name": "Saint Petersburg Saturday Morning Market",
    "opening_hours": "Sa 09:00-14:00",
    "phone": "+17274554921",
    "website": "https://saturdaymorningmarket.com/"
  }
},
{
  "type": "node",
  "id": 9603406643,
  "lat": 26.7839579,
  "lon": -81.7466978,
  "tags": {
    "amenity": "marketplace",
    "name": "Babcock Farmers Market",
    "opening_hours": "Su 09:00-13:00"
  }
},
{
  "type": "node",
  "id": 9608483811,
  "lat": 26.7832501,
  "lon": -81.7469872,
  "tags": {
    "amenity": "marketplace",
    "contact:facebook": "slatersgoods",
    "cuisine": "regional",
    "name": "Slater’s Goods & Provisions"
  }
},
{
  "type": "node",
  "id": 9814406247,
  "lat": 28.0200959,
  "lon": -82.1619388,
  "tags": {
    "addr:city": "Plant City",
    "addr:housenumber": "3702",
    "addr:postcode": "33563",
    "addr:state": "FL",
    "addr:street": "W Baker St",
    "amenity": "marketplace",
    "description": "Over the years, Roy and his own family took on the farm with a zest for hard work and a keen knowledge of agricultural and business practices. They expanded the farm into hundreds of acres of the finest strawberries, citrus, and vegetables available anywh",
    "email": "info@parkesdale.com",
    "name": "Parkesdale Farm Market",
    "opening_hours": "We-Su 09:00-18:00",
    "phone": "813-754-2704",
    "website": "https://parkesdale.com/"
  }
},
{
  "type": "node",
  "id": 9934299817,
  "lat": 25.7921211,
  "lon": -80.2815244,
  "tags": {
    "amenity": "marketplace",
    "name": "World Wine Market"
  }
},
{
  "type": "node",
  "id": 9934299831,
  "lat": 25.7914611,
  "lon": -80.2789352,
  "tags": {
    "amenity": "marketplace",
    "name": "World Wine Market"
  }
},
{
  "type": "node",
  "id": 10010240943,
  "lat": 30.6711371,
  "lon": -81.4598245,
  "tags": {
    "amenity": "marketplace",
    "marketplace": "farmers_market",
    "name": "Farmer's Market"
  }
},
{
  "type": "node",
  "id": 10813148831,
  "lat": 29.6259333,
  "lon": -82.8080401,
  "tags": {
    "addr:city": "Trenton",
    "addr:full": "830 NE Trenton Blvd",
    "addr:housenumber": "830",
    "addr:postcode": "32693",
    "addr:state": "FL",
    "addr:street": "Northeast Trenton Boulevard",
    "amenity": "marketplace",
    "fax": "+1-386-963-3391",
    "marketplace": "farmers market",
    "name": "Trenton State Farmer's Market",
    "note": "B2B location, where farmers are delivering to retailers/brokers/truckers",
    "phone": "+1-352-463-3142",
    "seasonal": "yes",
    "website": "https://www.freshfromflorida.com/Business-Services/State-Farmers-Markets/Trenton-State-Farmers-Market"
  }
},
{
  "type": "node",
  "id": 11223358891,
  "lat": 26.6511733,
  "lon": -80.2366686,
  "tags": {
    "addr:city": "Wellington",
    "addr:housenumber": "12008",
    "addr:postcode": "33414",
    "addr:state": "FL",
    "addr:street": "South Shore Boulevard",
    "addr:unit": "112",
    "amenity": "marketplace",
    "name": "Duda Farm Fresh Foods"
  }
},
{
  "type": "node",
  "id": 11641166593,
  "lat": 30.4253515,
  "lon": -86.6452529,
  "tags": {
    "addr:housenumber": "427",
    "addr:street": "Mary Esther Cut Off Northwest",
    "amenity": "marketplace",
    "name": "Aldi",
    "opening_hours": "Mo-Su 09:00-20:00",
    "phone": "855-955-2534",
    "website": "https://stores.aldi.us"
  }
},
{
  "type": "node",
  "id": 11959536025,
  "lat": 30.4599178,
  "lon": -87.2241989,
  "tags": {
    "addr:city": "Pensacola",
    "addr:housenumber": "4301",
    "addr:postcode": "32503",
    "addr:state": "FL",
    "addr:street": "N Davis Hwy",
    "amenity": "marketplace",
    "email": "market@baileysproduce.com",
    "name": "Bailey's Produce & Nursery",
    "opening_hours": "Mo-Sa 08:00-19:00; Su 10:00-16:00",
    "phone": "+1 850-332-5959",
    "website": "https://baileysproduce.com/"
  }
},
{
  "type": "node",
  "id": 12286726201,
  "lat": 26.0282970,
  "lon": -80.1689390,
  "tags": {
    "addr:housenumber": "3080",
    "addr:postcode": "33021",
    "addr:street": "Sheridan St",
    "amenity": "marketplace",
    "name": "Yellow Green Farmers Market"
  }
},
{
  "type": "node",
  "id": 12330948902,
  "lat": 25.5388418,
  "lon": -80.4100598,
  "tags": {
    "addr:postcode": "33032",
    "addr:street": "South Dixie Highway",
    "amenity": "marketplace",
    "contact:facebook": "redlandmarketvillage",
    "contact:instagram": "redlandmarket",
    "email": "info@redlandmarketvillage.com",
    "name": "Redland Market Village",
    "opening_hours": "Th-Fr 07:00-18:00; Sa-Su 11:00-18:00",
    "phone": "+1 305-257-4335",
    "website": "https://redlandmarketvillage.com/"
  }
},
{
  "type": "node",
  "id": 12459457564,
  "lat": 26.6403263,
  "lon": -81.1081423,
  "tags": {
    "amenity": "marketplace",
    "name": "Montura’s Market"
  }
},
{
  "type": "node",
  "id": 12916733852,
  "lat": 28.3055315,
  "lon": -81.4537981,
  "tags": {
    "amenity": "marketplace",
    "name": "MainGate Flea Market"
  }
},
{
  "type": "way",
  "id": 107477474,
  "center": {
    "lat": 29.8185198,
    "lon": -82.1654394
  },
  "tags": {
    "addr:housename": "Waldo Farmers Market",
    "addr:housenumber": "17805",
    "addr:postcode": "32694",
    "addr:street": "NE US Hwy 301",
    "amenity": "marketplace",
    "name": "Waldo Farmers Market",
    "opening_hours": "Sa-Su 08:00-16:00",
    "source": "local knowledge"
  }
},
{
  "type": "way",
  "id": 137927537,
  "center": {
    "lat": 28.4467035,
    "lon": -81.5606992
  },
  "tags": {
    "addr:street": "7880 Winter Garden-Vineland Road",
    "amenity": "marketplace",
    "landuse": "retail",
    "name": "Lakeside Village Town Center",
    "source": "local_knowledge",
    "website": "http://www.wix.com/boyddevelopment/boyd-development-corp/current-projects#!__current-projects/vstc27=lakeside-village-center"
  }
},
{
  "type": "way",
  "id": 141005324,
  "center": {
    "lat": 28.4633581,
    "lon": -81.4553371
  },
  "tags": {
    "addr:city": "Orlando",
    "addr:housenumber": "5545",
    "addr:postcode": "32819",
    "addr:state": "FL",
    "addr:street": "International Drive",
    "amenity": "marketplace",
    "building": "yes",
    "name": "International Drive Flea Market",
    "note": "seems to have absorbed 5529-31-33 and maybe others",
    "opening_hours": "We-Th 12:00-19:00; Fr-Sa 12:00-22:00; Su 12:00-21:00",
    "source:addr:housenumber": "Orange County GIS data"
  }
},
{
  "type": "way",
  "id": 184728233,
  "center": {
    "lat": 26.3331632,
    "lon": -81.7557937
  },
  "tags": {
    "amenity": "marketplace"
  }
},
{
  "type": "way",
  "id": 264391094,
  "center": {
    "lat": 28.1003824,
    "lon": -80.6856102
  },
  "tags": {
    "addr:city": "Melbourne",
    "addr:housenumber": "7856",
    "addr:postcode": "32901",
    "addr:street": "Ellis Road",
    "amenity": "marketplace",
    "building": "yes",
    "name": "Downtown Produce"
  }
},
{
  "type": "way",
  "id": 310030789,
  "center": {
    "lat": 28.3339409,
    "lon": -81.5171010
  },
  "tags": {
    "addr:city": "Kissimmee",
    "addr:housenumber": "5811",
    "addr:postcode": "34746",
    "addr:state": "FL",
    "addr:street": "West Irlo Bronson Memorial Highway",
    "amenity": "marketplace",
    "building": "yes",
    "name": "Visitors Flea Market",
    "shop": "gift",
    "website": "https://www.visitorsfleamarket.com/"
  }
},
{
  "type": "way",
  "id": 315825694,
  "center": {
    "lat": 25.8303502,
    "lon": -80.1918065
  },
  "tags": {
    "addr:city": "Miami",
    "addr:housenumber": "5925",
    "addr:state": "FL",
    "addr:street": "Northeast 2nd Avenue",
    "amenity": "marketplace",
    "building": "yes",
    "name": "Caribbean Marketplace"
  }
},
{
  "type": "way",
  "id": 365119114,
  "center": {
    "lat": 27.9611555,
    "lon": -82.4640258
  },
  "tags": {
    "addr:city": "Tampa",
    "addr:housenumber": "1910",
    "addr:postcode": "33602",
    "addr:state": "FL",
    "addr:street": "North Ola Avenue",
    "amenity": "marketplace",
    "name": "Armature Works",
    "website": "https://armatureworks.com/"
  }
},
{
  "type": "way",
  "id": 379011483,
  "center": {
    "lat": 28.1382966,
    "lon": -80.5855939
  },
  "tags": {
    "amenity": "marketplace",
    "building": "yes",
    "name": "Green Turtle"
  }
},
{
  "type": "way",
  "id": 399347548,
  "center": {
    "lat": 29.7099863,
    "lon": -82.3534512
  },
  "tags": {
    "amenity": "marketplace",
    "building": "roof",
    "name": "Alachua County Farmer's Market",
    "opening_hours": "Sa 08:30-13:00",
    "operator": "Alachua County",
    "organic": "yes",
    "website": "https://441market.com/",
    "wheelchair": "yes"
  }
},
{
  "type": "way",
  "id": 448707629,
  "center": {
    "lat": 26.2730968,
    "lon": -80.1629183
  },
  "tags": {
    "addr:city": "Pompano Beach",
    "addr:housenumber": "2800",
    "addr:postcode": "33069",
    "addr:street": "West Sample Road",
    "amenity": "marketplace",
    "ele": "5",
    "name": "Festival Flea Market",
    "opening_hours": "9:00-19:00"
  }
},
{
  "type": "way",
  "id": 463369841,
  "center": {
    "lat": 26.1375934,
    "lon": -80.1917179
  },
  "tags": {
    "addr:housenumber": "3291",
    "addr:street": "West Sunrise Boulevard",
    "amenity": "marketplace",
    "landuse": "retail",
    "name": "Swap Shop",
    "source": "Bing"
  }
},
{
  "type": "way",
  "id": 463383463,
  "center": {
    "lat": 28.0370772,
    "lon": -82.6495688
  },
  "tags": {
    "amenity": "marketplace"
  }
},
{
  "type": "way",
  "id": 476464516,
  "center": {
    "lat": 29.1645007,
    "lon": -81.0837385
  },
  "tags": {
    "addr:city": "Daytona Beach",
    "addr:housenumber": "1425",
    "addr:postcode": "32124",
    "addr:state": "FL",
    "addr:street": "Tamoka",
    "amenity": "marketplace",
    "email": "rentaloffice@daytonafleamarket.com",
    "fax": "+1 386 253 5903",
    "name": "Daytona Flea & Farmers Market",
    "phone": "+1 386 253 3330",
    "website": "https://daytonafleamarket.com/"
  }
},
{
  "type": "way",
  "id": 478681053,
  "center": {
    "lat": 28.2904237,
    "lon": -81.4058402
  },
  "tags": {
    "amenity": "marketplace",
    "building": "yes",
    "name": "Kissimmee Valley Farmer's Market"
  }
},
{
  "type": "way",
  "id": 507060511,
  "center": {
    "lat": 26.0564885,
    "lon": -80.2331162
  },
  "tags": {
    "amenity": "marketplace",
    "building": "yes"
  }
},
{
  "type": "way",
  "id": 572702696,
  "center": {
    "lat": 30.2985419,
    "lon": -81.7295411
  },
  "tags": {
    "amenity": "marketplace",
    "brand": "Honda",
    "brand:wikidata": "Q9584",
    "name": "Duval Honda",
    "operator": "Honda",
    "shop": "car"
  }
},
{
  "type": "way",
  "id": 572702716,
  "center": {
    "lat": 30.2910187,
    "lon": -81.7324555
  },
  "tags": {
    "amenity": "marketplace",
    "name": "Nimnicht Chevrolet",
    "shop": "car"
  }
},
{
  "type": "way",
  "id": 572702717,
  "center": {
    "lat": 30.2895994,
    "lon": -81.7325699
  },
  "tags": {
    "amenity": "marketplace",
    "name": "Duval Ford",
    "shop": "car"
  }
},
{
  "type": "way",
  "id": 601192485,
  "center": {
    "lat": 28.2110698,
    "lon": -80.6715950
  },
  "tags": {
    "amenity": "marketplace",
    "name": "Petty's Meat Market",
    "website": "https://www.pettysmeatmarket.com/"
  }
},
{
  "type": "way",
  "id": 604060202,
  "center": {
    "lat": 27.6561840,
    "lon": -80.4637324
  },
  "tags": {
    "amenity": "marketplace",
    "building": "yes",
    "name": "Peterson Groves"
  }
},
{
  "type": "way",
  "id": 783389262,
  "center": {
    "lat": 30.5146206,
    "lon": -81.6368011
  },
  "tags": {
    "addr:housenumber": "614",
    "addr:street": "Pecan Park Road",
    "amenity": "marketplace",
    "name": "Pecan Park Flea & Farmers' Market"
  }
},
{
  "type": "way",
  "id": 817346440,
  "center": {
    "lat": 30.2411418,
    "lon": -81.7423401
  },
  "tags": {
    "amenity": "marketplace"
  }
},
{
  "type": "way",
  "id": 833930260,
  "center": {
    "lat": 28.2351628,
    "lon": -82.7234881
  },
  "tags": {
    "amenity": "marketplace",
    "building": "yes",
    "name": "Grand Fresh Market"
  }
},
{
  "type": "way",
  "id": 888785193,
  "center": {
    "lat": 28.6159636,
    "lon": -82.0568298
  },
  "tags": {
    "addr:city": "Webster",
    "addr:housenumber": "524",
    "addr:postcode": "33597",
    "addr:street": "North Market Boulevard",
    "amenity": "marketplace",
    "name": "Sumter County Farmers Market",
    "phone": "352-569-1220",
    "website": "http://www.sumtercountyfarmersmarket.com/"
  }
},
{
  "type": "way",
  "id": 890221133,
  "center": {
    "lat": 27.6261215,
    "lon": -80.4520216
  },
  "tags": {
    "amenity": "marketplace",
    "building": "yes",
    "name": "Schacht Groves",
    "opening_hours": "Nov-Apr Mo-Sa 08:00-18:00; Nov-Apr Su 12:00-16:00; May-Oct Tu-Sa 11:00-17:00",
    "website": "https://schachtgroves.com/"
  }
},
{
  "type": "way",
  "id": 932569143,
  "center": {
    "lat": 30.5149695,
    "lon": -81.6365285
  },
  "tags": {
    "amenity": "marketplace",
    "building": "retail",
    "source": "microsoft/BuildingFootprints"
  }
},
{
  "type": "way",
  "id": 1053786959,
  "center": {
    "lat": 28.2095279,
    "lon": -82.7232094
  },
  "tags": {
    "amenity": "marketplace",
    "building": "yes"
  }
},
{
  "type": "way",
  "id": 1065704627,
  "center": {
    "lat": 26.0282750,
    "lon": -80.1690371
  },
  "tags": {
    "amenity": "marketplace",
    "building": "yes",
    "name": "Yellow Green Farmers Market",
    "source": "microsoft/BuildingFootprints"
  }
},
{
  "type": "way",
  "id": 1092379831,
  "center": {
    "lat": 29.6498480,
    "lon": -82.3341162
  },
  "tags": {
    "amenity": "marketplace",
    "name": "Midpoint Park and Eatery",
    "street_vendor": "yes"
  }
},
{
  "type": "way",
  "id": 1150357112,
  "center": {
    "lat": 27.1609413,
    "lon": -80.3195583
  },
  "tags": {
    "amenity": "marketplace",
    "name": "Palm City Farms Produce & Market"
  }
},
{
  "type": "way",
  "id": 1226192733,
  "center": {
    "lat": 28.7620067,
    "lon": -82.2943904
  },
  "tags": {
    "amenity": "marketplace",
    "building": "public",
    "operator": "Dollar General",
    "wheelchair": "yes"
  }
},
{
  "type": "way",
  "id": 1417988922,
  "center": {
    "lat": 27.9956301,
    "lon": -82.4257836
  },
  "tags": {
    "amenity": "marketplace"
  }
},
{
  "type": "relation",
  "id": 2096589,
  "center": {
    "lat": 28.5683229,
    "lon": -81.3436593
  },
  "tags": {
    "amenity": "marketplace",
    "ele": "35",
    "gnis:feature_id": "299492",
    "name": "East End Market",
    "type": "multipolygon"
  }
},
{
  "type": "relation",
  "id": 7334228,
  "center": {
    "lat": 27.4835840,
    "lon": -82.5618118
  },
  "tags": {
    "addr:city": "Bradenton",
    "addr:housenumber": "1707",
    "addr:state": "FL",
    "addr:street": "1st Street East",
    "amenity": "marketplace",
    "building": "yes",
    "name": "Red Barn Flea Market",
    "type": "multipolygon",
    "website": "https://www.redbarnfleamarket.com/"
  }
}

  ]
}
